[{"OBJECT_NAME":"STARLINK-11425 [DTC]","OBJECT_ID":"2024-209E","EPOCH":"2026-03-09T05:47:49.085376","MEAN_MOTION":15.69763762,"ECCENTRICITY":0.00012293,"INCLINATION":53.1577,"RA_OF_ASC_NODE":13.7543,"ARG_OF_PERICENTER":88.5603,"MEAN_ANOMALY":271.5555,"EPHEMERIS_TYPE":0,"CLASSIFICATION_TYPE":"U","NORAD_CAT_ID":61943,"ELEMENT_SET_NO":999,"REV_AT_EPOCH":7660,"BSTAR":0.0019673601,"MEAN_MOTION_DOT":0.00245487,"MEAN_MOTION_DDOT":0},{"OBJECT_NAME":"FLOCK 4BE-10","OBJECT_ID":"2024-149AM","EPOCH":"2026-03-09T23:11:04.477920","MEAN_MOTION":15.73804605,"ECCENTRICITY":0.00059918,"INCLINATION":97.3736,"RA_OF_ASC_NODE":155.157,"ARG_OF_PERICENTER":229.3829,"MEAN_ANOMALY":130.6914,"EPHEMERIS_TYPE":0,"CLASSIFICATION_TYPE":"U","NORAD_CAT_ID":60503,"ELEMENT_SET_NO":999,"REV_AT_EPOCH":8723,"BSTAR":0.0018232079,"MEAN_MOTION_DOT":0.00264399,"MEAN_MOTION_DDOT":0}]
